NORAD_CAT_ID,OBJECT_NAME,OBJECT_TYPE,EPOCH,MEAN_MOTION,ECCENTRICITY,INCLINATION,RA_OF_ASC_NODE,ARG_OF_PERICENTER,MEAN_ANOMALY,BSTAR,MEAN_MOTION_DOT,MEAN_MOTION_DDOT,TLE_LINE0,TLE_LINE1,TLE_LINE2,SEMIMAJOR_AXIS,PERIOD,APOGEE,PERIGEE,DECAYED
53741.0,STARLINK-4614,PAYLOAD,2024-02-18 07:00:26,15.08837379,0.0001583,53.2195,17.5588,86.2662,273.8511,1.6588e-05,-2.4e-07,0.0,0 STARLINK-4614,1 53741U 22107AT  24049.29196824 -.00000024  00000-0  16588-4 0  9991,2 53741  53.2195  17.5588 0001583  86.2662 273.8511 15.08837379 80745,6917.888,95.438,540.849,538.658,0.0
53741.0,STARLINK-4614,PAYLOAD,2024-02-18 14:57:21,15.08838331,0.0001599,53.2195,16.0722,85.5158,274.6017,1.4781e-05,-5.3e-07,0.0,0 STARLINK-4614,1 53741U 22107AT  24049.62316804 -.00000053  00000-0  14781-4 0  9995,2 53741  53.2195  16.0722 0001599  85.5158 274.6017 15.08838331 81579,6917.885,95.438,540.857,538.644,0.0
53741.0,STARLINK-4614,PAYLOAD,2024-02-19 03:40:26,15.08842506,0.0001568,53.219,13.6932,86.6009,273.5163,2.4342e-05,9.9e-07,0.0,0 STARLINK-4614,1 53741U 22107AT  24050.15308498  .00000099  00000-0  24342-4 0  9998,2 53741  53.2190  13.6932 0001568  86.6009 273.5163 15.08842506 81651,6917.873,95.437,540.822,538.653,0.0
53741.0,STARLINK-4614,PAYLOAD,2024-02-19 14:48:08,15.08840637,0.0001544,53.2189,11.6117,86.56,273.5569,1.3134e-05,-7.9e-07,0.0,0 STARLINK-4614,1 53741U 22107AT  24050.61676600 -.00000079  00000-0  13134-4 0  9998,2 53741  53.2189  11.6117 0001544  86.5600 273.5569 15.08840637 80946,6917.878,95.438,540.812,538.675,0.0
53741.0,STARLINK-4614,PAYLOAD,2024-02-19 21:09:41,15.08836371,0.0001543,53.2186,10.4225,86.6478,273.4691,3.1116e-05,2.07e-06,0.0,0 STARLINK-4614,1 53741U 22107AT  24050.88172796  .00000207  00000-0  31116-4 0  9996,2 53741  53.2186  10.4225 0001543  86.6478 273.4691 15.08836371 81769,6917.891,95.438,540.824,538.689,0.0
53741.0,STARLINK-4614,PAYLOAD,2024-02-20 14:38:55,15.08837326,0.0001539,53.2184,7.151,87.9051,272.2117,3.8987e-06,-2.26e-06,0.0,0 STARLINK-4614,1 53741U 22107AT  24051.61036878 -.00000226  00000-0  38987-5 0  9994,2 53741  53.2184   7.1510 0001539  87.9051 272.2117 15.08837326 81876,6917.889,95.438,540.818,538.689,0.0
53741.0,STARLINK-4614,PAYLOAD,2024-02-21 03:22:00,15.08839004,0.0001577,53.2186,4.7709,94.074,266.0432,6.8432e-06,-1.79e-06,0.0,0 STARLINK-4614,1 53741U 22107AT  24052.14028754 -.00000179  00000-0  68432-5 0  9992,2 53741  53.2186   4.7709 0001577  94.0740 266.0432 15.08839004 81176,6917.883,95.438,540.839,538.657,0.0
53741.0,STARLINK-4614,PAYLOAD,2024-02-22 06:23:34,15.08840631,0.0001568,53.2189,359.7158,90.8143,269.3029,1.4047e-05,-6.4e-07,0.0,0 STARLINK-4614,1 53741U 22107AT  24053.26636657 -.00000064  00000-0  14047-4 0  9998,2 53741  53.2189 359.7158 0001568  90.8143 269.3029 15.08840631 81346,6917.878,95.438,540.828,538.659,0.0
53741.0,STARLINK-4614,PAYLOAD,2024-02-23 12:35:54,15.08837125,0.0001592,53.2192,354.0653,86.7993,273.3181,6.4249e-06,-1.86e-06,0.0,0 STARLINK-4614,1 53741U 22107AT  24054.52493071 -.00000186  00000-0  64249-5 0  9994,2 53741  53.2192 354.0653 0001592  86.7993 273.3181 15.08837125 82318,6917.889,95.438,540.856,538.653,0.0
53741.0,STARLINK-4614,PAYLOAD,2024-02-23 20:32:50,15.08832969,0.0001664,53.2196,352.5792,96.4487,263.6695,-3.12e-05,-7.84e-06,0.0,0 STARLINK-4614,1 53741U 22107AT  24054.85613532 -.00000784  00000-0 -31200-4 0  9991,2 53741  53.2196 352.5792 0001664  96.4487 263.6695 15.08832969 81586,6917.902,95.438,540.918,538.616,0.0
53741.0,STARLINK-4614,PAYLOAD,2024-02-24 12:26:41,15.08835363,0.0001656,53.2197,349.6061,92.2773,267.8409,-5.8746e-06,-3.82e-06,0.0,0 STARLINK-4614,1 53741U 22107AT  24055.51853570 -.00000382  00000-0 -58746-5 0  9992,2 53741  53.2197 349.6061 0001656  92.2773 267.8409 15.08835363 82464,6917.895,95.438,540.905,538.614,0.0
53741.0,STARLINK-4614,PAYLOAD,2024-02-25 04:20:32,15.08839597,0.0001629,53.2196,346.6329,92.5705,267.5474,3.8996e-05,3.33e-06,0.0,0 STARLINK-4614,1 53741U 22107AT  24056.18093269  .00000333  00000-0  38996-4 0  9995,2 53741  53.2196 346.6329 0001629  92.5705 267.5474 15.08839597 81781,6917.882,95.438,540.874,538.62,0.0
53741.0,STARLINK-4614,PAYLOAD,2024-02-25 12:17:28,15.08838972,0.0001653,53.2197,345.1458,89.0214,271.0967,3.2273e-05,2.26e-06,0.0,0 STARLINK-4614,1 53741U 22107AT  24056.51213365  .00000226  00000-0  32273-4 0  9996,2 53741  53.2197 345.1458 0001653  89.0214 271.0967 15.08838972 82618,6917.884,95.438,540.892,538.605,0.0
53741.0,STARLINK-4614,PAYLOAD,2024-02-26 04:11:19,15.08840433,0.0001621,53.2193,342.1716,88.4365,271.6813,6.6598e-05,7.72e-06,0.0,0 STARLINK-4614,1 53741U 22107AT  24057.17453220  .00000772  00000-0  66598-4 0  9998,2 53741  53.2193 342.1716 0001621  88.4365 271.6813 15.08840433 82715,6917.879,95.438,540.865,538.623,0.0
53741.0,STARLINK-4614,PAYLOAD,2024-02-26 18:29:48,15.08835359,0.0001727,53.2192,339.4962,88.5628,271.5562,-2.5969e-05,-7.01e-06,0.0,0 STARLINK-4614,1 53741U 22107AT  24057.77069989 -.00000701  00000-0 -25969-4 0  9990,2 53741  53.2192 339.4962 0001727  88.5628 271.5562 15.08835359 82021,6917.895,95.438,540.954,538.565,0.0
53741.0,STARLINK-4614,PAYLOAD,2024-02-27 04:02:07,15.08837339,0.0001725,53.2191,337.7122,88.8214,271.2976,-1.5671e-05,-5.37e-06,0.0,0 STARLINK-4614,1 53741U 22107AT  24058.16813879 -.00000537  00000-0 -15671-4 0  9995,2 53741  53.2191 337.7122 0001725  88.8214 271.2976 15.08837339 82869,6917.889,95.438,540.947,538.56,0.0
53741.0,STARLINK-4614,PAYLOAD,2024-02-27 18:20:35,15.08838743,0.0001703,53.219,335.0363,89.4585,270.6603,8.7199e-06,-1.49e-06,0.0,0 STARLINK-4614,1 53741U 22107AT  24058.76429719 -.00000149  00000-0  87199-5 0  9990,2 53741  53.2190 335.0363 0001703  89.4585 270.6603 15.08838743 82950,6917.884,95.438,540.927,538.571,0.0
53741.0,STARLINK-4614,PAYLOAD,2024-02-28 03:52:53,15.08844326,0.000169,53.219,333.2531,96.5873,263.5311,3.7155e-05,3.03e-06,0.0,0 STARLINK-4614,1 53741U 22107AT  24059.16173135  .00000303  00000-0  37155-4 0  9990,2 53741  53.2190 333.2531 0001690  96.5873 263.5311 15.08844326 82233,6917.867,95.437,540.901,538.563,0.0
53741.0,STARLINK-4614,PAYLOAD,2024-02-28 11:49:49,15.08843645,0.000163,53.2184,331.7654,90.6836,269.4343,-4.6882e-05,-1.034e-05,0.0,0 STARLINK-4614,1 53741U 22107AT  24059.49293412 -.00001034  00000-0 -46882-4 0  9998,2 53741  53.2184 331.7654 0001630  90.6836 269.4343 15.08843645 83068,6917.869,95.437,540.862,538.607,0.0
53741.0,STARLINK-4614,PAYLOAD,2024-02-28 22:57:31,15.08838105,0.0001618,53.2186,329.6832,91.9182,268.1996,1.6918e-05,-1.9e-07,0.0,0 STARLINK-4614,1 53741U 22107AT  24059.95661599 -.00000019  00000-0  16918-4 0  9992,2 53741  53.2186 329.6832 0001618  91.9182 268.1996 15.08838105 83131,6917.886,95.438,540.87,538.632,0.0
53741.0,STARLINK-4614,PAYLOAD,2024-02-29 03:43:40,15.08839002,0.0001631,53.2185,328.7911,92.8303,267.2875,2.4252e-05,9.8e-07,0.0,0 STARLINK-4614,1 53741U 22107AT  24060.15533513  .00000098  00000-0  24252-4 0  9996,2 53741  53.2185 328.7911 0001631  92.8303 267.2875 15.08839002 82387,6917.883,95.438,540.877,538.62,0.0
53741.0,STARLINK-4614,PAYLOAD,2024-02-29 22:48:18,15.08840935,0.0001646,53.2181,325.2231,90.6417,269.4764,-2.7477e-05,-7.25e-06,0.0,0 STARLINK-4614,1 53741U 22107AT  24060.95021667 -.00000725  00000-0 -27477-4 0  9997,2 53741  53.2181 325.2231 0001646  90.6417 269.4764 15.08840935 83286,6917.878,95.437,540.881,538.604,0.0
53741.0,STARLINK-4614,PAYLOAD,2024-03-01 13:06:47,15.08835026,0.0001655,53.2178,322.5471,90.5693,269.5489,-1.6867e-05,-5.56e-06,0.0,0 STARLINK-4614,1 53741U 22107AT  24061.54638028 -.00000556  00000-0 -16867-4 0  9991,2 53741  53.2178 322.5471 0001655  90.5693 269.5489 15.08835026 83373,6917.896,95.438,540.906,538.616,0.0
53741.0,STARLINK-4614,PAYLOAD,2024-03-01 21:03:43,15.08833866,0.0001633,53.2178,321.0601,90.5922,269.5257,-1.7374e-05,-5.64e-06,0.0,0 STARLINK-4614,1 53741U 22107AT  24061.87758184 -.00000564  00000-0 -17374-4 0  9996,2 53741  53.2178 321.0601 0001633  90.5922 269.5257 15.08833866 82645,6917.899,95.438,540.894,538.634,0.0
53741.0,STARLINK-4614,PAYLOAD,2024-03-02 00:14:29,15.08834177,0.0001617,53.2178,320.4653,89.8692,270.2486,-1.8777e-05,-5.87e-06,0.0,0 STARLINK-4614,1 53741U 22107AT  24062.01006214 -.00000587  00000-0 -18777-4 0  9996,2 53741  53.2178 320.4653 0001617  89.8692 270.2486 15.08834177 83440,6917.898,95.438,540.882,538.645,0.0
53741.0,STARLINK-4614,PAYLOAD,2024-03-02 22:29:53,15.08837096,0.0001551,53.2177,316.3023,89.2697,270.8472,4.8672e-06,-2.11e-06,0.0,0 STARLINK-4614,1 53741U 22107AT  24062.93742179 -.00000211  00000-0  48672-5 0  9995,2 53741  53.2177 316.3023 0001551  89.2697 270.8472 15.08837096 83589,6917.889,95.438,540.827,538.681,0.0
53741.0,STARLINK-4614,PAYLOAD,2024-03-03 03:16:02,15.08838789,0.0001553,53.2176,315.4099,88.5714,271.5456,1.8079e-05,0.0,0.0,0 STARLINK-4614,1 53741U 22107AT  24063.13614050 -.00000000  00000-0  18079-4 0  9997,2 53741  53.2176 315.4099 0001553  88.5714 271.5456 15.08838789 82832,6917.884,95.438,540.823,538.675,0.0
53741.0,STARLINK-4614,PAYLOAD,2024-03-03 09:37:34,15.08839531,0.0001543,53.2174,314.2204,87.8666,272.2503,4.5524e-05,4.37e-06,0.0,0 STARLINK-4614,1 53741U 22107AT  24063.40109920  .00000437  00000-0  45524-4 0  9990,2 53741  53.2174 314.2204 0001543  87.8666 272.2503 15.08839531 83650,6917.882,95.438,540.814,538.679,0.0
53741.0,STARLINK-4614,PAYLOAD,2024-03-03 20:45:17,15.08834236,0.0001595,53.2178,312.1402,92.2716,267.8459,2.0919e-05,4.5e-07,0.0,0 STARLINK-4614,1 53741U 22107AT  24063.86478427  .00000045  00000-0  20919-4 0  9997,2 53741  53.2178 312.1402 0001595  92.2716 267.8459 15.08834236 83729,6917.898,95.438,540.866,538.66,0.0
53741.0,STARLINK-4614,PAYLOAD,2024-03-04 09:28:22,15.08840367,0.0001703,53.2187,309.7607,88.888,271.2307,4.8338e-05,4.81e-06,0.0,0 STARLINK-4614,1 53741U 22107AT  24064.39470043  .00000481  00000-0  48338-4 0  9991,2 53741  53.2187 309.7607 0001703  88.8880 271.2307 15.08840367 83028,6917.879,95.438,540.922,538.566,0.0
